NORAD_CAT_ID,OBJECT_NAME,OBJECT_TYPE,EPOCH,MEAN_MOTION,ECCENTRICITY,INCLINATION,RA_OF_ASC_NODE,ARG_OF_PERICENTER,MEAN_ANOMALY,BSTAR,MEAN_MOTION_DOT,MEAN_MOTION_DDOT,TLE_LINE0,TLE_LINE1,TLE_LINE2,SEMIMAJOR_AXIS,PERIOD,APOGEE,PERIGEE,DECAYED
51785.0,STARLINK-3646,PAYLOAD,2023-08-27 06:27:32,15.08847507,0.0001359,53.2173,173.4944,86.7446,273.3701,2.8797e-05,1.7e-06,0.0,0 STARLINK-3646,1 51785U 22017T   23239.26912067  .00000170  00000-0  28797-4 0  9995,2 51785  53.2173 173.4944 0001359  86.7446 273.3701 15.08847507 82710,6917.857,95.437,540.663,538.782,0.0
51785.0,STARLINK-3646,PAYLOAD,2023-08-28 04:42:56,15.08847202,0.0001548,53.2177,169.3302,102.7623,257.3542,1.3815e-05,-6.8e-07,0.0,0 STARLINK-3646,1 51785U 22017T   23240.19648243 -.00000068  00000-0  13815-4 0  9993,2 51785  53.2177 169.3302 0001548 102.7623 257.3542 15.08847202 84542,6917.858,95.437,540.794,538.652,0.0
51785.0,STARLINK-3646,PAYLOAD,2023-08-28 12:39:52,15.08837476,0.0001539,53.2177,167.8442,86.6783,273.4385,2.1947e-05,6.1e-07,0.0,0 STARLINK-3646,1 51785U 22017T   23240.52768873  .00000061  00000-0  21947-4 0  9999,2 51785  53.2177 167.8442 0001539  86.6783 273.4385 15.08837476 84598,6917.888,95.438,540.818,538.688,0.0
51785.0,STARLINK-3646,PAYLOAD,2023-08-29 22:02:58,15.08837648,0.0001416,53.217,161.5988,97.4267,262.6886,-3.2707e-05,-8.08e-06,0.0,0 STARLINK-3646,1 51785U 22017T   23241.91873254 -.00000808  00000-0 -32707-4 0  9990,2 51785  53.2170 161.5988 0001416  97.4267 262.6886 15.08837648 83112,6917.888,95.438,540.732,538.773,0.0
51785.0,STARLINK-3646,PAYLOAD,2023-08-30 01:13:44,15.08841033,0.0001431,53.2172,161.0034,99.6603,260.4551,-1.811e-05,-5.76e-06,0.0,0 STARLINK-3646,1 51785U 22017T   23242.05121000 -.00000576  00000-0 -18110-4 0  9995,2 51785  53.2172 161.0034 0001431  99.6603 260.4551 15.08841033 84823,6917.877,95.437,540.732,538.752,0.0
51785.0,STARLINK-3646,PAYLOAD,2023-08-30 04:24:30,15.08838998,0.0001424,53.2171,160.4087,105.5427,254.5723,1.1116e-05,-1.11e-06,0.0,0 STARLINK-3646,1 51785U 22017T   23242.18368995 -.00000111  00000-0  11116-4 0  9998,2 51785  53.2171 160.4087 0001424 105.5427 254.5723 15.08838998 83152,6917.883,95.438,540.734,538.763,0.0
51785.0,STARLINK-3646,PAYLOAD,2023-08-31 04:15:17,15.08843615,0.0001473,53.2177,155.9493,93.1582,266.9578,4.4711e-05,4.24e-06,0.0,0 STARLINK-3646,1 51785U 22017T   23243.17728727  .00000424  00000-0  44711-4 0  9994,2 51785  53.2177 155.9493 0001473  93.1582 266.9578 15.08843615 84996,6917.869,95.437,540.753,538.715,0.0
51785.0,STARLINK-3646,PAYLOAD,2023-09-01 02:30:42,15.08837342,0.0001321,53.2166,151.7879,84.2162,275.898,-3.9178e-06,-3.5e-06,0.0,0 STARLINK-3646,1 51785U 22017T   23244.10465455 -.00000350  00000-0 -39178-5 0  9996,2 51785  53.2166 151.7879 0001321  84.2162 275.8980 15.08837342 85136,6917.889,95.438,540.667,538.84,0.0
51785.0,STARLINK-3646,PAYLOAD,2023-09-01 10:27:37,15.08838376,0.0001317,53.2176,150.3015,84.3868,275.7274,-2.1568e-05,-6.31e-06,0.0,0 STARLINK-3646,1 51785U 22017T   23244.43585487 -.00000631  00000-0 -21568-4 0  9995,2 51785  53.2176 150.3015 0001317  84.3868 275.7274 15.08838376 83493,6917.885,95.438,540.661,538.839,0.0
51785.0,STARLINK-3646,PAYLOAD,2023-09-02 02:21:28,15.08855022,0.0001253,53.2164,147.3275,89.7701,270.3435,-8.0347e-05,-1.567e-05,0.0,0 STARLINK-3646,1 51785U 22017T   23245.09824587 -.00001567  00000-0 -80347-4 0  9994,2 51785  53.2164 147.3275 0001253  89.7701 270.3435 15.08855022 85284,6917.834,95.437,540.566,538.833,0.0
51785.0,STARLINK-3646,PAYLOAD,2023-09-02 10:18:24,15.08839466,0.0001438,53.2161,145.8393,86.2449,273.8708,7.5334e-05,9.11e-06,0.0,0 STARLINK-3646,1 51785U 22017T   23245.42944956  .00000911  00000-0  75334-4 0  9994,2 51785  53.2161 145.8393 0001438  86.2449 273.8708 15.08839466 85332,6917.882,95.438,540.742,538.752,0.0
51785.0,STARLINK-3646,PAYLOAD,2023-09-03 10:09:12,15.08835721,0.0001379,53.216,141.3785,81.6038,278.511,-2.5467e-05,-6.93e-06,0.0,0 STARLINK-3646,1 51785U 22017T   23246.42305720 -.00000693  00000-0 -25467-4 0  9996,2 51785  53.2160 141.3785 0001379  81.6038 278.5110 15.08835721 85489,6917.893,95.438,540.712,538.804,0.0
51785.0,STARLINK-3646,PAYLOAD,2023-09-04 09:59:59,15.08837573,0.0001747,53.2174,136.9196,83.3718,276.7473,3.2478e-05,2.29e-06,0.0,0 STARLINK-3646,1 51785U 22017T   23247.41665863  .00000229  00000-0  32478-4 0  9996,2 51785  53.2174 136.9196 0001747  83.3718 276.7473 15.08837573 83941,6917.888,95.438,540.961,538.544,0.0
51785.0,STARLINK-3646,PAYLOAD,2023-09-05 01:53:50,15.08845777,0.0001272,53.2172,133.9468,87.1749,272.9389,4.7034e-05,4.61e-06,0.0,0 STARLINK-3646,1 51785U 22017T   23248.07905220  .00000461  00000-0  47034-4 0  9995,2 51785  53.2172 133.9468 0001272  87.1749 272.9389 15.08845777 85735,6917.863,95.437,540.608,538.848,0.0
51785.0,STARLINK-3646,PAYLOAD,2023-09-06 01:44:37,15.08838766,0.0001393,53.2178,129.4847,85.8056,274.3095,4.3882e-05,4.11e-06,0.0,0 STARLINK-3646,1 51785U 22017T   23249.07265795  .00000411  00000-0  43882-4 0  9994,2 51785  53.2178 129.4847 0001393  85.8056 274.3095 15.08838766 85888,6917.884,95.438,540.713,538.785,0.0
51785.0,STARLINK-3646,PAYLOAD,2023-09-07 01:35:24,15.08847164,0.0001319,53.2173,125.0237,92.9926,267.1217,1.848e-06,-2.59e-06,0.0,0 STARLINK-3646,1 51785U 22017T   23250.06625228 -.00000259  00000-0  18480-5 0  9994,2 51785  53.2173 125.0237 0001319  92.9926 267.1217 15.08847164 86037,6917.858,95.437,540.636,538.811,0.0
51785.0,STARLINK-3646,PAYLOAD,2023-09-07 15:53:53,15.0883703,0.000154,53.2153,122.3481,93.3953,266.7215,-3.3843e-05,-8.27e-06,0.0,0 STARLINK-3646,1 51785U 22017T   23250.66242046 -.00000827  00000-0 -33843-4 0  9994,2 51785  53.2153 122.3481 0001540  93.3953 266.7215 15.08837030 86121,6917.889,95.438,540.82,538.689,0.0
51785.0,STARLINK-3646,PAYLOAD,2023-09-08 01:26:12,15.08836014,0.0001529,53.2155,120.564,92.9064,267.2103,-3.8474e-05,-9e-06,0.0,0 STARLINK-3646,1 51785U 22017T   23251.05986189 -.00000900  00000-0 -38474-4 0  9998,2 51785  53.2155 120.5640 0001529  92.9064 267.2103 15.08836014 84496,6917.893,95.438,540.815,538.7,0.0
51785.0,STARLINK-3646,PAYLOAD,2023-09-08 18:55:26,15.08837013,0.0001214,53.2167,117.2931,87.7584,272.3548,6.2388e-05,7.05e-06,0.0,0 STARLINK-3646,1 51785U 22017T   23251.78849712  .00000705  00000-0  62388-4 0  9990,2 51785  53.2167 117.2931 0001214  87.7584 272.3548 15.08837013 86295,6917.89,95.438,540.594,538.915,0.0
51785.0,STARLINK-3646,PAYLOAD,2023-09-08 22:06:12,15.08842144,0.000124,53.2166,116.6994,85.0674,275.046,0.00010314,1.354e-05,0.0,0 STARLINK-3646,1 51785U 22017T   23251.92097311  .00001354  00000-0  10314-3 0  9998,2 51785  53.2166 116.6994 0001240  85.0674 275.0460 15.08842144 84625,6917.874,95.437,540.597,538.881,0.0
51785.0,STARLINK-3646,PAYLOAD,2023-09-09 01:16:58,15.088434,0.0001246,53.2167,116.1045,85.062,275.0514,0.00011268,1.506e-05,0.0,0 STARLINK-3646,1 51785U 22017T   23252.05345200  .00001506  00000-0  11268-3 0  9994,2 51785  53.2167 116.1045 0001246  85.0620 275.0514 15.08843400 86331,6917.87,95.437,540.597,538.873,0.0
51785.0,STARLINK-3646,PAYLOAD,2023-09-09 07:38:31,15.08835701,0.0001315,53.2175,114.9129,82.952,277.1622,4.2354e-05,3.86e-06,0.0,0 STARLINK-3646,1 51785U 22017T   23252.31841951  .00000386  00000-0  42354-4 0  9993,2 51785  53.2175 114.9129 0001315  82.9520 277.1622 15.08835701 86373,6917.894,95.438,540.668,538.849,0.0
51785.0,STARLINK-3646,PAYLOAD,2023-09-09 18:46:14,15.08829362,0.0001341,53.2183,112.8322,85.577,274.5376,-1.9811e-05,-6.03e-06,0.0,0 STARLINK-3646,1 51785U 22017T   23252.78210835 -.00000603  00000-0 -19811-4 0  9991,2 51785  53.2183 112.8322 0001341  85.5770 274.5376 15.08829362 86440,6917.913,95.438,540.706,538.85,0.0
51785.0,STARLINK-3646,PAYLOAD,2023-09-10 01:07:46,15.08833777,0.000123,53.2169,111.6442,92.3728,267.7405,1.4719e-05,-5.4e-07,0.0,0 STARLINK-3646,1 51785U 22017T   23253.04706527 -.00000054  00000-0  14719-4 0  9990,2 51785  53.2169 111.6442 0001230  92.3728 267.7405 15.08833777 84798,6917.899,95.438,540.615,538.914,0.0
51785.0,STARLINK-3646,PAYLOAD,2023-09-10 18:37:00,15.08839909,0.0001288,53.217,108.3732,91.2864,268.8275,-2.4053e-05,-6.71e-06,0.0,0 STARLINK-3646,1 51785U 22017T   23253.77570549 -.00000671  00000-0 -24053-4 0  9991,2 51785  53.2170 108.3732 0001288  91.2864 268.8275 15.08839909 86597,6917.881,95.438,540.637,538.855,0.0
51785.0,STARLINK-3646,PAYLOAD,2023-09-11 07:20:05,15.08843333,0.0001288,53.217,105.9939,87.8391,272.2749,3.1581e-06,-2.38e-06,0.0,0 STARLINK-3646,1 51785U 22017T   23254.30562254 -.00000238  00000-0  31581-5 0  9998,2 51785  53.2170 105.9939 0001288  87.8391 272.2749 15.08843333 84987,6917.87,95.437,540.626,538.844,0.0
51785.0,STARLINK-3646,PAYLOAD,2023-09-11 20:03:10,15.0884074,0.0001299,53.2171,103.6147,88.3755,271.7386,8.0306e-05,9.9e-06,0.0,0 STARLINK-3646,1 51785U 22017T   23254.83554333  .00000990  00000-0  80306-4 0  9997,2 51785  53.2171 103.6147 0001299  88.3755 271.7386 15.08840740 86753,6917.878,95.438,540.642,538.844,0.0
51785.0,STARLINK-3646,PAYLOAD,2023-09-12 13:32:25,15.08840427,0.0001359,53.2174,100.3432,86.3373,273.7774,5.765e-05,6.3e-06,0.0,0 STARLINK-3646,1 51785U 22017T   23255.56418499  .00000630  00000-0  57650-4 0  9997,2 51785  53.2174 100.3432 0001359  86.3373 273.7774 15.08840427 85178,6917.879,95.438,540.684,538.804,0.0
51785.0,STARLINK-3646,PAYLOAD,2023-09-12 21:29:20,15.08848084,0.0001464,53.2181,98.8567,85.5609,274.555,9.6347e-05,1.246e-05,0.0,0 STARLINK-3646,1 51785U 22017T   23255.89537879  .00001246  00000-0  96347-4 0  9997,2 51785  53.2181  98.8567 0001464  85.5609 274.5550 15.08848084 85220,6917.856,95.437,540.733,538.708,0.0
51785.0,STARLINK-3646,PAYLOAD,2023-09-13 13:23:10,15.08864506,0.0001349,53.2179,95.8821,85.4114,274.7032,0.00020603,2.995e-05,0.0,0 STARLINK-3646,1 51785U 22017T   23256.55775837  .00002995  00000-0  20603-3 0  9992,2 51785  53.2179  95.8821 0001349  85.4114 274.7032 15.08864506 85324,6917.805,95.436,540.604,538.737,0.0
